{"type": "FeatureCollection", "features": [ {"type": "Feature", "properties": {"norad_id": 34375, "name": "IRIDIUM 33 DEB", "group": "iridium-33-debris", "lat": -55.23654832394971, "lon": 178.28138002884177, "alt_km": 912.9603092751813, "timestamp": "2025-12-10T21:43:22.475886+00:00", "meta": {"OBJECT_NAME": "IRIDIUM 33 DEB", "OBJECT_ID": "1997-051FT", "EPOCH": "2025-12-10T07:35:27.786048", "MEAN_MOTION": 14.17985501, "ECCENTRICITY": 0.0103124, "INCLINATION": 86.4328, "RA_OF_ASC_NODE": 183.6751, "ARG_OF_PERICENTER": 134.3251, "MEAN_ANOMALY": 46.2443, "EPHEMERIS_TYPE": 0, "CLASSIFICATION_TYPE": "U", "NORAD_CAT_ID": 34375, "ELEMENT_SET_NO": 999, "REV_AT_EPOCH": 86677, "BSTAR": 0.00060254, "MEAN_MOTION_DOT": 1.319e-05, "MEAN_MOTION_DDOT": 0}, "tle": {"line1": "1 34375U 97051FT  25344.31629382  .00001319  00000+0  60254-3 0  9999", "line2": "2 34375  86.4328 183.6751 0103124 134.3251  46.2443 14.17985501866774"}}, "geometry": {"type": "Point", "coordinates": [178.28138002884177, -55.23654832394971]}}, {"type": "Feature", "properties": {"norad_id": 34376, "name": "IRIDIUM 33 DEB", "group": "iridium-33-debris", "lat": 22.686528148952156, "lon": 8.915052512628208, "alt_km": 701.2306801975446, "timestamp": "2025-12-10T21:43:22.475897+00:00", "meta": {"OBJECT_NAME": "IRIDIUM 33 DEB", "OBJECT_ID": "1997-051FU", "EPOCH": "2025-12-10T11:45:58.663584", "MEAN_MOTION": 14.62514696, "ECCENTRICITY": 0.00269271, "INCLINATION": 86.2989, "RA_OF_ASC_NODE": 7.5509, "ARG_OF_PERICENTER": 174.2059, "MEAN_ANOMALY": 185.9469, "EPHEMERIS_TYPE": 0, "CLASSIFICATION_TYPE": "U", "NORAD_CAT_ID": 34376, "ELEMENT_SET_NO": 999, "REV_AT_EPOCH": 87974, "BSTAR": 0.0021547736, "MEAN_MOTION_DOT": 0.0001101, "MEAN_MOTION_DDOT": 0}, "tle": {"line1": "1 34376U 97051FU  25344.49026231  .00011010  00000+0  21548-2 0  9994", "line2": "2 34376  86.2989   7.5509 0026927 174.2059 185.9469 14.62514696879748"}}, "geometry": {"type": "Point", "coordinates": [8.915052512628208, 22.686528148952156]}}, {"type": "Feature", "properties": {"norad_id": 34486, "name": "IRIDIUM 33 DEB", "group": "iridium-33-debris", "lat": 20.403923919161713, "lon": 14.215430502798169, "alt_km": 581.7762086552984, "timestamp": "2025-12-10T21:43:22.475907+00:00", "meta": {"OBJECT_NAME": "IRIDIUM 33 DEB", "OBJECT_ID": "1997-051GB", "EPOCH": "2025-12-10T12:34:52.076640", "MEAN_MOTION": 14.95631974, "ECCENTRICITY": 0.00134896, "INCLINATION": 86.3938, "RA_OF_ASC_NODE": 13.0469, "ARG_OF_PERICENTER": 119.9859, "MEAN_ANOMALY": 11.1663, "EPHEMERIS_TYPE": 0, "CLASSIFICATION_TYPE": "U", "NORAD_CAT_ID": 34486, "ELEMENT_SET_NO": 999, "REV_AT_EPOCH": 88953, "BSTAR": 0.0031930379, "MEAN_MOTION_DOT": 0.00035691, "MEAN_MOTION_DDOT": 0}, "tle": {"line1": "1 34486U 97051GB  25344.52421385  .00035691  00000+0  31930-2 0  9996", "line2": "2 34486  86.3938  13.0469 0013489 119.9859  11.1663 14.95631974889534"}}, "geometry": {"type": "Point", "coordinates": [14.215430502798169, 20.403923919161713]}}, {"type": "Feature", "properties": {"norad_id": 34487, "name": "IRIDIUM 33 DEB", "group": "iridium-33-debris", "lat": 21.946505769070185, "lon": 14.643777225566675, "alt_km": 756.3379487443344, "timestamp": "2025-12-10T21:43:22.475918+00:00", "meta": {"OBJECT_NAME": "IRIDIUM 33 DEB", "OBJECT_ID": "1997-051GC", "EPOCH": "2025-12-10T01:47:16.386144", "MEAN_MOTION": 14.4321077, "ECCENTRICITY": 0.00325626, "INCLINATION": 86.3436, "RA_OF_ASC_NODE": 13.5248, "ARG_OF_PERICENTER": 136.7627, "MEAN_ANOMALY": 252.8644, "EPHEMERIS_TYPE": 0, "CLASSIFICATION_TYPE": "U", "NORAD_CAT_ID": 34487, "ELEMENT_SET_NO": 999, "REV_AT_EPOCH": 88210, "BSTAR": 0.00027422216, "MEAN_MOTION_DOT": 9.48e-06, "MEAN_MOTION_DDOT": 0}, "tle": {"line1": "1 34487U 97051GC  25344.07449521  .00000948  00000+0  27422-3 0  9998", "line2": "2 34487  86.3436  13.5248 0032562 136.7627 252.8644 14.43210770882100"}}, "geometry": {"type": "Point", "coordinates": [14.643777225566675, 21.946505769070185]}}, {"type": "Feature", "properties": {"norad_id": 34488, "name": "IRIDIUM 33 DEB", "group": "iridium-33-debris", "lat": 35.46412213760379, "lon": 124.0979390527662, "alt_km": 477.54992972548916, "timestamp": "2025-12-10T21:43:22.475928+00:00", "meta": {"OBJECT_NAME": "IRIDIUM 33 DEB", "OBJECT_ID": "1997-051GD", "EPOCH": "2025-12-10T14:48:36.946656", "MEAN_MOTION": 15.28578771, "ECCENTRICITY": 0.00138013, "INCLINATION": 86.3253, "RA_OF_ASC_NODE": 306.8644, "ARG_OF_PERICENTER": 55.1759, "MEAN_ANOMALY": 305.0785, "EPHEMERIS_TYPE": 0, "CLASSIFICATION_TYPE": "U", "NORAD_CAT_ID": 34488, "ELEMENT_SET_NO": 999, "REV_AT_EPOCH": 89207, "BSTAR": 0.0066251858, "MEAN_MOTION_DOT": 0.00188937, "MEAN_MOTION_DDOT": 0}, "tle": {"line1": "1 34488U 97051GD  25344.61709429  .00188937  00000+0  66252-2 0  9993", "line2": "2 34488  86.3253 306.8644 0013801  55.1759 305.0785 15.28578771892077"}}, "geometry": {"type": "Point", "coordinates": [124.0979390527662, 35.46412213760379]}}, {"type": "Feature", "properties": {"norad_id": 34492, "name": "IRIDIUM 33 DEB", "group": "iridium-33-debris", "lat": -47.132655030733765, "lon": 159.17957726717745, "alt_km": 682.9662436871258, "timestamp": "2025-12-10T21:43:22.475939+00:00", "meta": {"OBJECT_NAME": "IRIDIUM 33 DEB", "OBJECT_ID": "1997-051GH", "EPOCH": "2025-12-10T11:09:51.703200", "MEAN_MOTION": 14.25634536, "ECCENTRICITY": 0.01891979, "INCLINATION": 86.473, "RA_OF_ASC_NODE": 335.5473, "ARG_OF_PERICENTER": 245.5701, "MEAN_ANOMALY": 245.7256, "EPHEMERIS_TYPE": 0, "CLASSIFICATION_TYPE": "U", "NORAD_CAT_ID": 34492, "ELEMENT_SET_NO": 999, "REV_AT_EPOCH": 85026, "BSTAR": 0.0074682378, "MEAN_MOTION_DOT": 0.00021406, "MEAN_MOTION_DDOT": 0}, "tle": {"line1": "1 34492U 97051GH  25344.46518175  .00021406  00000+0  74682-2 0  9990", "line2": "2 34492  86.4730 335.5473 0189197 245.5701 245.7256 14.25634536850262"}}, "geometry": {"type": "Point", "coordinates": [159.17957726717745, -47.132655030733765]}}, {"type": "Feature", "properties": {"norad_id": 34497, "name": "IRIDIUM 33 DEB", "group": "iridium-33-debris", "lat": 83.44495135388932, "lon": -161.32122754452763, "alt_km": 811.6973442050266, "timestamp": "2025-12-10T21:43:22.475951+00:00", "meta": {"OBJECT_NAME": "IRIDIUM 33 DEB", "OBJECT_ID": "1997-051GN", "EPOCH": "2025-12-10T04:35:23.086752", "MEAN_MOTION": 14.2744131, "ECCENTRICITY": 0.00790645, "INCLINATION": 86.2779, "RA_OF_ASC_NODE": 53.4903, "ARG_OF_PERICENTER": 347.8917, "MEAN_ANOMALY": 40.4515, "EPHEMERIS_TYPE": 0, "CLASSIFICATION_TYPE": "U", "NORAD_CAT_ID": 34497, "ELEMENT_SET_NO": 999, "REV_AT_EPOCH": 86847, "BSTAR": 0.00082191095, "MEAN_MOTION_DOT": 2.102e-05, "MEAN_MOTION_DDOT": 0}, "tle": {"line1": "1 34497U 97051GN  25344.19123943  .00002102  00000+0  82191-3 0  9997", "line2": "2 34497  86.2779  53.4903 0079064 347.8917  40.4515 14.27441310868476"}}, "geometry": {"type": "Point", "coordinates": [-161.32122754452763, 83.44495135388932]}}, {"type": "Feature", "properties": {"norad_id": 34508, "name": "IRIDIUM 33 DEB", "group": "iridium-33-debris", "lat": -0.398680336128143, "lon": -76.55399696092192, "alt_km": 719.7408197820414, "timestamp": "2025-12-10T21:43:22.475961+00:00", "meta": {"OBJECT_NAME": "IRIDIUM 33 DEB", "OBJECT_ID": "1997-051GZ", "EPOCH": "2025-12-10T09:12:01.319040", "MEAN_MOTION": 14.38393247, "ECCENTRICITY": 0.00660379, "INCLINATION": 86.3701, "RA_OF_ASC_NODE": 103.6419, "ARG_OF_PERICENTER": 180.4805, "MEAN_ANOMALY": 179.6341, "EPHEMERIS_TYPE": 0, "CLASSIFICATION_TYPE": "U", "NORAD_CAT_ID": 34508, "ELEMENT_SET_NO": 999, "REV_AT_EPOCH": 87275, "BSTAR": 0.0023927243, "MEAN_MOTION_DOT": 7.501e-05, "MEAN_MOTION_DDOT": 0}, "tle": {"line1": "1 34508U 97051GZ  25344.38334860  .00007501  00000+0  23927-2 0  9992", "line2": "2 34508  86.3701 103.6419 0066037 180.4805 179.6341 14.38393247872753"}}, "geometry": {"type": "Point", "coordinates": [-76.55399696092192, -0.398680336128143]}}, {"type": "Feature", "properties": {"norad_id": 34521, "name": "IRIDIUM 33 DEB", "group": "iridium-33-debris", "lat": -13.63990840183388, "lon": -147.76422496042218, "alt_km": 686.312710704552, "timestamp": "2025-12-10T21:43:22.475972+00:00", "meta": {"OBJECT_NAME": "IRIDIUM 33 DEB", "OBJECT_ID": "1997-051HN", "EPOCH": "2025-12-10T14:16:35.180832", "MEAN_MOTION": 14.63336597, "ECCENTRICITY": 0.00013221, "INCLINATION": 86.3801, "RA_OF_ASC_NODE": 31.4921, "ARG_OF_PERICENTER": 228.2808, "MEAN_ANOMALY": 131.8291, "EPHEMERIS_TYPE": 0, "CLASSIFICATION_TYPE": "U", "NORAD_CAT_ID": 34521, "ELEMENT_SET_NO": 999, "REV_AT_EPOCH": 88441, "BSTAR": 0.001370832, "MEAN_MOTION_DOT": 7.099e-05, "MEAN_MOTION_DDOT": 0}, "tle": {"line1": "1 34521U 97051HN  25344.59485163  .00007099  00000+0  13708-2 0  9991", "line2": "2 34521  86.3801  31.4921 0001322 228.2808 131.8291 14.63336597884418"}}, "geometry": {"type": "Point", "coordinates": [-147.76422496042218, -13.63990840183388]}}, {"type": "Feature", "properties": {"norad_id": 34525, "name": "IRIDIUM 33 DEB", "group": "iridium-33-debris", "lat": 32.306455614985616, "lon": -134.67208590376018, "alt_km": 743.9354515948153, "timestamp": "2025-12-10T21:43:22.475982+00:00", "meta": {"OBJECT_NAME": "IRIDIUM 33 DEB", "OBJECT_ID": "1997-051HS", "EPOCH": "2025-12-10T15:05:26.627424", "MEAN_MOTION": 14.42897814, "ECCENTRICITY": 0.00067023, "INCLINATION": 86.3728, "RA_OF_ASC_NODE": 47.7446, "ARG_OF_PERICENTER": 100.2162, "MEAN_ANOMALY": 52.7315, "EPHEMERIS_TYPE": 0, "CLASSIFICATION_TYPE": "U", "NORAD_CAT_ID": 34525, "ELEMENT_SET_NO": 999, "REV_AT_EPOCH": 88057, "BSTAR": 0.00056976145, "MEAN_MOTION_DOT": 1.923e-05, "MEAN_MOTION_DDOT": 0}, "tle": {"line1": "1 34525U 97051HS  25344.62878041  .00001923  00000+0  56976-3 0  9995", "line2": "2 34525  86.3728  47.7446 0006702 100.2162  52.7315 14.42897814880573"}}, "geometry": {"type": "Point", "coordinates": [-134.67208590376018, 32.306455614985616]}}]}